STARLINK-36319          
1 67970U 26038K   26064.25003472 -.01483757  69863-3 -25837-2 0  9998
2 67970  97.2753  74.1808 0001241  71.0597  69.8632 16.02306182  2453
STARLINK-36710          
1 67971U 26038L   26064.25003472 -.01473257  69172-3 -25240-2 0  9994
2 67971  97.2750  74.1834 0001111  72.9873  73.3233 16.02584508  2483
STARLINK-36894          
1 67972U 26038M   26064.25003472 -.01466371  68671-3 -24941-2 0  9994
2 67972  97.2748  74.1843 0001227  66.8947  81.8576 16.02706831  2482
STARLINK-36900          
1 67973U 26038N   26064.25003472 -.01424046  65207-3 -23899-2 0  9991
2 67973  97.2746  74.1864 0001054  78.1103  75.5268 16.02930108  2486
STARLINK-36901          
1 67974U 26038P   26064.25003472 -.01466062  68740-3 -24762-2 0  9991
2 67974  97.2748  74.1851 0001215  68.2710  82.7957 16.02826231  2484
STARLINK-36883          
1 67975U 26038Q   26064.25003472 -.01407960  64234-3 -22922-2 0  9994
2 67975  97.2741  74.1905 0001247  69.1223  94.3580 16.03443623  2484
STARLINK-36880          
1 67976U 26038R   26064.25003472 -.01462149  68614-3 -24312-2 0  9996
2 67976  97.2744  74.1873 0001236  75.5310  80.5599 16.03092649  2483
STARLINK-36904          
1 67977U 26038S   26064.25003472 -.01456099  68294-3 -23848-2 0  9991
2 67977  97.2741  74.1891 0001320  70.5319  90.4572 16.03348818  2482
STARLINK-36364          
1 67978U 26038T   26064.25003472 -.01359955  60429-3 -21775-2 0  9994
2 67978  97.2736  74.1929 0001062  88.3301  80.9318 16.03718741  2488
STARLINK-36359          
1 67979U 26038U   26064.25003472 -.01459550  68472-3 -24120-2 0  9990
2 67979  97.2742  74.1876 0001083  80.5880  77.5898 16.03197569  2480
STARLINK-36882          
1 67980U 26038V   26064.25003472 -.01449360  67946-3 -23325-2 0  9991
2 67980  97.2737  74.1915 0001234  70.8448  95.6221 16.03644657  2486
STARLINK-36874          
1 67981U 26038W   26064.25003472 -.01442823  67576-3 -22882-2 0  9995
2 67981  97.2736  74.1937 0001224  67.7197 103.5215 16.03891038  2484
